<?xml version="1.0" encoding="UTF-8"?>
<TrainingCenterDatabase xmlns="http://www.garmin.com/xmlschemas/TrainingCenterDatabase/v2">
  <Activities>
    <Activity Sport="Other">
      <Id>2026-09-05T10:11:31.000Z</Id>
      <Lap StartTime="2026-09-05T10:11:31.000Z">
        <TotalTimeSeconds>3509</TotalTimeSeconds>
        <DistanceMeters>0</DistanceMeters>
        <Calories>0</Calories>
        <Intensity>Active</Intensity>
        <TriggerMethod>Manual</TriggerMethod>
        <Notes>PULL session. Pull Up (Wide): 6@-,6@-,6@-. Row (Bent Over): 8@50,8@50,8@50. Row (Seated): 10@18,10@18,10@18. Pull Down (Wide): 8@45,8@39,8@39. Preacher Curl: 8@26.5,8@26.5,8@26.5. Bicep Curl: 8@10,8@10,8@10</Notes>
      </Lap>
      <Creator xsi:type="Device_t" xmlns:xsi="http://www.w3.org/2001/XMLSchema-instance">
        <Name>WorkoutApp</Name>
        <UnitId>0</UnitId>
        <ProductID>0</ProductID>
        <Version><VersionMajor>1</VersionMajor><VersionMinor>0</VersionMinor><BuildMajor>0</BuildMajor><BuildMinor>0</BuildMinor></Version>
      </Creator>
    </Activity>
  </Activities>
</TrainingCenterDatabase>