<?xml version="1.0" encoding="UTF-8"?>
<TrainingCenterDatabase xmlns="http://www.garmin.com/xmlschemas/TrainingCenterDatabase/v2">
  <Activities>
    <Activity Sport="Other">
      <Id>2026-09-20T09:42:32.000Z</Id>
      <Lap StartTime="2026-09-20T09:42:32.000Z">
        <TotalTimeSeconds>3</TotalTimeSeconds>
        <DistanceMeters>0</DistanceMeters>
        <Calories>0</Calories>
        <Intensity>Active</Intensity>
        <TriggerMethod>Manual</TriggerMethod>
        <Notes>PUSH session. Chest Press: 10@40,10@40,10@40. Chest Fly: 8@40,8@40,8@40. Overhead Press: 8@35,8@35,8@35. Lateral Raise: 8@8,8@8,8@8. Tricep Extension: 12@64,12@64,12@64. Dip: 10@-,10@-,10@-. Press Up: 12@-,12@-,12@-. Bench Press: 10@-,10@-,10@-</Notes>
      </Lap>
      <Creator xsi:type="Device_t" xmlns:xsi="http://www.w3.org/2001/XMLSchema-instance">
        <Name>WorkoutApp</Name>
        <UnitId>0</UnitId>
        <ProductID>0</ProductID>
        <Version><VersionMajor>1</VersionMajor><VersionMinor>0</VersionMinor><BuildMajor>0</BuildMajor><BuildMinor>0</BuildMinor></Version>
      </Creator>
    </Activity>
  </Activities>
</TrainingCenterDatabase>